{"type": "FeatureCollection", "features": [ {"type": "Feature", "properties": {"norad_id": 34529, "name": "IRIDIUM 33 DEB", "group": "iridium-33-debris", "lat": -86.32591118208772, "lon": -62.01338852320977, "alt_km": 763.8202582007452, "timestamp": "2025-12-11T07:02:24.115485+00:00", "meta": {"OBJECT_NAME": "IRIDIUM 33 DEB", "OBJECT_ID": "1997-051HW", "EPOCH": "2025-12-10T21:27:28.298592", "MEAN_MOTION": 14.40613504, "ECCENTRICITY": 0.0004575, "INCLINATION": 86.3643, "RA_OF_ASC_NODE": 36.1987, "ARG_OF_PERICENTER": 182.7168, "MEAN_ANOMALY": 177.4008, "EPHEMERIS_TYPE": 0, "CLASSIFICATION_TYPE": "U", "NORAD_CAT_ID": 34529, "ELEMENT_SET_NO": 999, "REV_AT_EPOCH": 88115, "BSTAR": 0.00017116699, "MEAN_MOTION_DOT": 5.65e-06, "MEAN_MOTION_DDOT": 0}, "tle": {"line1": "1 34529U 97051HW  25344.89407753  .00000565  00000+0  17117-3 0  9991", "line2": "2 34529  86.3643  36.1987 0004575 182.7168 177.4008 14.40613504881151"}}, "geometry": {"type": "Point", "coordinates": [-62.01338852320977, -86.32591118208772]}}, {"type": "Feature", "properties": {"norad_id": 34538, "name": "IRIDIUM 33 DEB", "group": "iridium-33-debris", "lat": 82.6841341222471, "lon": 155.71577871951925, "alt_km": 755.2858306325588, "timestamp": "2025-12-11T07:02:24.115495+00:00", "meta": {"OBJECT_NAME": "IRIDIUM 33 DEB", "OBJECT_ID": "1997-051JF", "EPOCH": "2025-12-10T12:59:24.609120", "MEAN_MOTION": 14.42626981, "ECCENTRICITY": 0.0033054, "INCLINATION": 86.2772, "RA_OF_ASC_NODE": 6.5186, "ARG_OF_PERICENTER": 335.5091, "MEAN_ANOMALY": 177.0552, "EPHEMERIS_TYPE": 0, "CLASSIFICATION_TYPE": "U", "NORAD_CAT_ID": 34538, "ELEMENT_SET_NO": 999, "REV_AT_EPOCH": 87724, "BSTAR": 0.0013644, "MEAN_MOTION_DOT": 4.581e-05, "MEAN_MOTION_DDOT": 0}, "tle": {"line1": "1 34538U 97051JF  25344.54125705  .00004581  00000+0  13644-2 0  9999", "line2": "2 34538  86.2772   6.5186 0033054 335.5091 177.0552 14.42626981877242"}}, "geometry": {"type": "Point", "coordinates": [155.71577871951925, 82.6841341222471]}}, {"type": "Feature", "properties": {"norad_id": 34540, "name": "IRIDIUM 33 DEB", "group": "iridium-33-debris", "lat": -15.786779613160544, "lon": -52.777121327044426, "alt_km": 660.4543620873483, "timestamp": "2025-12-11T07:02:24.115506+00:00", "meta": {"OBJECT_NAME": "IRIDIUM 33 DEB", "OBJECT_ID": "1997-051JH", "EPOCH": "2025-12-10T09:02:54.464064", "MEAN_MOTION": 14.75237983, "ECCENTRICITY": 0.00160091, "INCLINATION": 86.3107, "RA_OF_ASC_NODE": 308.6869, "ARG_OF_PERICENTER": 167.5274, "MEAN_ANOMALY": 353.4924, "EPHEMERIS_TYPE": 0, "CLASSIFICATION_TYPE": "U", "NORAD_CAT_ID": 34540, "ELEMENT_SET_NO": 999, "REV_AT_EPOCH": 88986, "BSTAR": 0.0024707638, "MEAN_MOTION_DOT": 0.00016789, "MEAN_MOTION_DDOT": 0}, "tle": {"line1": "1 34540U 97051JH  25344.37701926  .00016789  00000+0  24708-2 0  9994", "line2": "2 34540  86.3107 308.6869 0016009 167.5274 353.4924 14.75237983889869"}}, "geometry": {"type": "Point", "coordinates": [-52.777121327044426, -15.786779613160544]}}, {"type": "Feature", "properties": {"norad_id": 34648, "name": "IRIDIUM 33 DEB", "group": "iridium-33-debris", "lat": 75.83360437058764, "lon": 88.04973463058928, "alt_km": 972.0033527018877, "timestamp": "2025-12-11T07:02:24.115516+00:00", "meta": {"OBJECT_NAME": "IRIDIUM 33 DEB", "OBJECT_ID": "1997-051JZ", "EPOCH": "2025-12-10T13:31:51.923424", "MEAN_MOTION": 14.11387502, "ECCENTRICITY": 0.0183418, "INCLINATION": 86.3907, "RA_OF_ASC_NODE": 282.8249, "ARG_OF_PERICENTER": 305.6711, "MEAN_ANOMALY": 52.7515, "EPHEMERIS_TYPE": 0, "CLASSIFICATION_TYPE": "U", "NORAD_CAT_ID": 34648, "ELEMENT_SET_NO": 999, "REV_AT_EPOCH": 84930, "BSTAR": 0.012723, "MEAN_MOTION_DOT": 0.00027053, "MEAN_MOTION_DDOT": 0}, "tle": {"line1": "1 34648U 97051JZ  25344.56379541  .00027053  00000+0  12723-1 0  9997", "line2": "2 34648  86.3907 282.8249 0183418 305.6711  52.7515 14.11387502849304"}}, "geometry": {"type": "Point", "coordinates": [88.04973463058928, 75.83360437058764]}}, {"type": "Feature", "properties": {"norad_id": 34651, "name": "IRIDIUM 33 DEB", "group": "iridium-33-debris", "lat": 83.58433527245032, "lon": 176.50449304392075, "alt_km": 854.1855763426383, "timestamp": "2025-12-11T07:02:24.115526+00:00", "meta": {"OBJECT_NAME": "IRIDIUM 33 DEB", "OBJECT_ID": "1997-051KC", "EPOCH": "2025-12-10T20:31:39.361152", "MEAN_MOTION": 14.25764503, "ECCENTRICITY": 0.01420953, "INCLINATION": 86.2836, "RA_OF_ASC_NODE": 141.3789, "ARG_OF_PERICENTER": 209.9439, "MEAN_ANOMALY": 149.3571, "EPHEMERIS_TYPE": 0, "CLASSIFICATION_TYPE": "U", "NORAD_CAT_ID": 34651, "ELEMENT_SET_NO": 999, "REV_AT_EPOCH": 85869, "BSTAR": 0.0051973334, "MEAN_MOTION_DOT": 0.00013755, "MEAN_MOTION_DDOT": 0}, "tle": {"line1": "1 34651U 97051KC  25344.85531668  .00013755  00000+0  51973-2 0  9998", "line2": "2 34651  86.2836 141.3789 0142095 209.9439 149.3571 14.25764503858697"}}, "geometry": {"type": "Point", "coordinates": [176.50449304392075, 83.58433527245032]}}, {"type": "Feature", "properties": {"norad_id": 34652, "name": "IRIDIUM 33 DEB", "group": "iridium-33-debris", "lat": -51.12295848547331, "lon": -23.91870032880259, "alt_km": 675.1878352179874, "timestamp": "2025-12-11T07:02:24.115537+00:00", "meta": {"OBJECT_NAME": "IRIDIUM 33 DEB", "OBJECT_ID": "1997-051KD", "EPOCH": "2025-12-09T11:37:22.959264", "MEAN_MOTION": 14.62008914, "ECCENTRICITY": 0.00262076, "INCLINATION": 86.3314, "RA_OF_ASC_NODE": 341.4507, "ARG_OF_PERICENTER": 310.1115, "MEAN_ANOMALY": 203.3524, "EPHEMERIS_TYPE": 0, "CLASSIFICATION_TYPE": "U", "NORAD_CAT_ID": 34652, "ELEMENT_SET_NO": 999, "REV_AT_EPOCH": 88436, "BSTAR": 0.0015009226, "MEAN_MOTION_DOT": 7.584e-05, "MEAN_MOTION_DDOT": 0}, "tle": {"line1": "1 34652U 97051KD  25343.48429351  .00007584  00000+0  15009-2 0  9995", "line2": "2 34652  86.3314 341.4507 0026207 310.1115 203.3524 14.62008914884363"}}, "geometry": {"type": "Point", "coordinates": [-23.91870032880259, -51.12295848547331]}}, {"type": "Feature", "properties": {"norad_id": 34690, "name": "IRIDIUM 33 DEB", "group": "iridium-33-debris", "lat": -27.877960797126956, "lon": -140.45996130004514, "alt_km": 722.8115162977356, "timestamp": "2025-12-11T07:02:24.115547+00:00", "meta": {"OBJECT_NAME": "IRIDIUM 33 DEB", "OBJECT_ID": "1997-051KM", "EPOCH": "2025-12-10T14:17:14.834976", "MEAN_MOTION": 14.55083084, "ECCENTRICITY": 0.0011101, "INCLINATION": 86.378, "RA_OF_ASC_NODE": 37.9232, "ARG_OF_PERICENTER": 36.03, "MEAN_ANOMALY": 117.6753, "EPHEMERIS_TYPE": 0, "CLASSIFICATION_TYPE": "U", "NORAD_CAT_ID": 34690, "ELEMENT_SET_NO": 999, "REV_AT_EPOCH": 88063, "BSTAR": 0.00066726, "MEAN_MOTION_DOT": 2.9e-05, "MEAN_MOTION_DDOT": 0}, "tle": {"line1": "1 34690U 97051KM  25344.59531059  .00002900  00000+0  66726-3 0  9999", "line2": "2 34690  86.3780  37.9232 0011101  36.0300 117.6753 14.55083084880631"}}, "geometry": {"type": "Point", "coordinates": [-140.45996130004514, -27.877960797126956]}}, {"type": "Feature", "properties": {"norad_id": 34693, "name": "IRIDIUM 33 DEB", "group": "iridium-33-debris", "lat": -58.47160366877576, "lon": 130.58985156944107, "alt_km": 500.83610662584215, "timestamp": "2025-12-11T07:02:24.115557+00:00", "meta": {"OBJECT_NAME": "IRIDIUM 33 DEB", "OBJECT_ID": "1997-051KQ", "EPOCH": "2025-12-10T08:38:30.910272", "MEAN_MOTION": 15.27015384, "ECCENTRICITY": 0.00144202, "INCLINATION": 86.3054, "RA_OF_ASC_NODE": 305.0067, "ARG_OF_PERICENTER": 56.9182, "MEAN_ANOMALY": 94.3145, "EPHEMERIS_TYPE": 0, "CLASSIFICATION_TYPE": "U", "NORAD_CAT_ID": 34693, "ELEMENT_SET_NO": 999, "REV_AT_EPOCH": 88878, "BSTAR": 0.0067186448, "MEAN_MOTION_DOT": 0.00182624, "MEAN_MOTION_DDOT": 0}, "tle": {"line1": "1 34693U 97051KQ  25344.36007998  .00182624  00000+0  67186-2 0  9999", "line2": "2 34693  86.3054 305.0067 0014420  56.9182  94.3145 15.27015384888787"}}, "geometry": {"type": "Point", "coordinates": [130.58985156944107, -58.47160366877576]}}, {"type": "Feature", "properties": {"norad_id": 34696, "name": "IRIDIUM 33 DEB", "group": "iridium-33-debris", "lat": -64.59337815420739, "lon": 20.11815867074137, "alt_km": 712.5800599809363, "timestamp": "2025-12-11T07:02:24.115567+00:00", "meta": {"OBJECT_NAME": "IRIDIUM 33 DEB", "OBJECT_ID": "1997-051KT", "EPOCH": "2025-12-10T13:59:57.596064", "MEAN_MOTION": 14.64908761, "ECCENTRICITY": 0.0074196, "INCLINATION": 86.1846, "RA_OF_ASC_NODE": 28.5251, "ARG_OF_PERICENTER": 174.7781, "MEAN_ANOMALY": 337.5874, "EPHEMERIS_TYPE": 0, "CLASSIFICATION_TYPE": "U", "NORAD_CAT_ID": 34696, "ELEMENT_SET_NO": 999, "REV_AT_EPOCH": 86641, "BSTAR": 0.0079045, "MEAN_MOTION_DOT": 0.00044251, "MEAN_MOTION_DDOT": 0}, "tle": {"line1": "1 34696U 97051KT  25344.58330551  .00044251  00000+0  79045-2 0  9990", "line2": "2 34696  86.1846  28.5251 0074196 174.7781 337.5874 14.64908761866416"}}, "geometry": {"type": "Point", "coordinates": [20.11815867074137, -64.59337815420739]}}, {"type": "Feature", "properties": {"norad_id": 34765, "name": "IRIDIUM 33 DEB", "group": "iridium-33-debris", "lat": -47.20063962055286, "lon": 29.41814420118382, "alt_km": 765.0367309801231, "timestamp": "2025-12-11T07:02:24.115577+00:00", "meta": {"OBJECT_NAME": "IRIDIUM 33 DEB", "OBJECT_ID": "1997-051LJ", "EPOCH": "2025-12-10T22:04:40.043424", "MEAN_MOTION": 14.40457706, "ECCENTRICITY": 0.00152474, "INCLINATION": 86.3395, "RA_OF_ASC_NODE": 33.5425, "ARG_OF_PERICENTER": 217.7654, "MEAN_ANOMALY": 319.5905, "EPHEMERIS_TYPE": 0, "CLASSIFICATION_TYPE": "U", "NORAD_CAT_ID": 34765, "ELEMENT_SET_NO": 999, "REV_AT_EPOCH": 87587, "BSTAR": 0.00061078711, "MEAN_MOTION_DOT": 1.962e-05, "MEAN_MOTION_DDOT": 0}, "tle": {"line1": "1 34765U 97051LJ  25344.91990791  .00001962  00000+0  61079-3 0  9993", "line2": "2 34765  86.3395  33.5425 0015247 217.7654 319.5905 14.40457706875879"}}, "geometry": {"type": "Point", "coordinates": [29.41814420118382, -47.20063962055286]}}]}